[{"OBJECT_NAME":"TIANMU-1 09","OBJECT_ID":"2023-101C","EPOCH":"2026-03-09T22:17:34.703232","MEAN_MOTION":15.29080822,"ECCENTRICITY":0.00049013,"INCLINATION":97.267,"RA_OF_ASC_NODE":121.1263,"ARG_OF_PERICENTER":139.4293,"MEAN_ANOMALY":220.7314,"EPHEMERIS_TYPE":0,"CLASSIFICATION_TYPE":"U","NORAD_CAT_ID":57401,"ELEMENT_SET_NO":999,"REV_AT_EPOCH":14647,"BSTAR":0.00030540035,"MEAN_MOTION_DOT":8.553e-5,"MEAN_MOTION_DDOT":0},{"OBJECT_NAME":"STARLINK-35714","OBJECT_ID":"2025-244J","EPOCH":"2026-03-09T21:08:25.424448","MEAN_MOTION":15.30210555,"ECCENTRICITY":9.954e-5,"INCLINATION":53.157,"RA_OF_ASC_NODE":229.3918,"ARG_OF_PERICENTER":53.1303,"MEAN_ANOMALY":306.9788,"EPHEMERIS_TYPE":0,"CLASSIFICATION_TYPE":"U","NORAD_CAT_ID":66214,"ELEMENT_SET_NO":999,"REV_AT_EPOCH":2168,"BSTAR":0.0011441748,"MEAN_MOTION_DOT":0.00033693,"MEAN_MOTION_DDOT":0}]
